STARLINK-35018          
1 65288U 25184R   26187.12672764  .00005737  00000+0  40101-3 0  9998
2 65288  97.2828 237.7280 0001818  95.5563 264.5872 15.05665293 49129
STARLINK-34845          
1 65289U 25184S   26187.11841685  .00001731  00000+0  12383-3 0  9999
2 65289  97.2820 237.7363 0001179  95.9142 264.2221 15.05646861 49126
STARLINK-34984          
1 65290U 25184T   26187.13226354 -.00001070  00000+0 -70311-4 0  9997
2 65290  97.2825 237.7194 0001652  97.9850 262.1565 15.05643187 49125
STARLINK-35002          
1 65291U 25184U   26187.36773174 -.00064560  00000+0 -45393-2 0  9993
2 65291  97.2832 237.8570 0001067  92.9257 267.2092 15.05420068 49154
STARLINK-35017          
1 65292U 25184V   26187.57808275  .00010848  00000+0  75424-3 0  9995
2 65292  97.2823 238.1849 0001324 111.2346 248.9023 15.05670116 49148
STARLINK-34951          
1 65293U 25184W   26187.14333665 -.00001202  00000+0 -79471-4 0  9998
2 65293  97.2822 237.7038 0002125 115.3895 244.7553 15.05641740 49128
STARLINK-34613          
1 65294U 25184X   26187.15440763  .00002439  00000+0  17287-3 0  9995
2 65294  97.2841 237.6890 0001743 106.6006 253.5413 15.05659604 49128
STARLINK-34834          
1 65295U 25184Y   26187.10732310  .00001812  00000+0  12939-3 0  9996
2 65295  97.2818 237.6002 0001531 109.3455 250.7938 15.05658523 49110
STARLINK-34872          
1 65296U 25184Z   26187.16270966  .00005331  00000+0  37287-3 0  9990
2 65296  97.2834 237.6770 0001914 148.3435 211.7908 15.05673950 49123
STARLINK-34899          
1 65323U 25189A   26186.94535673  .00023237  00000+0  75910-3 0  9990
2 65323  53.1592  16.6355 0000904 100.0242 260.0862 15.31662812 49220
STARLINK-34196          
1 65324U 25189B   26186.93637052  .00053233  00000+0  17142-2 0  9995
2 65324  53.1605  16.5959 0000977  98.1319 261.9793 15.31714872 49178
STARLINK-34911          
1 65325U 25189C   26186.93309636  .00030087  00000+0  89969-3 0  9999
2 65325  53.1612  17.2884 0000650 116.9088 243.1981 15.34342057 49213
STARLINK-34902          
1 65326U 25189D   26187.58336806  .00012462  00000+0  37918-3 0  9995
2 65326  53.1601  14.4286 0001314  60.4243 200.6224 15.34415023  5765
STARLINK-34880          
1 65327U 25189E   26187.48877113  .00060513  00000+0  20405-2 0  9998
2 65327  53.1600  15.0685 0001085  43.4760 316.6327 15.30170160 49299
STARLINK-34885          
1 65328U 25189F   26187.47670435  .00026093  00000+0  84993-3 0  9994
2 65328  53.1595  14.2830 0000938 112.8163 247.2938 15.31689847 49240
STARLINK-34908          
1 65329U 25189G   26187.58336806  .00015297  00000+0  46291-3 0  9991
2 65329  53.1607  14.3568 0001344 115.5379 180.3905 15.34402382  5811
STARLINK-34864          
1 65330U 25189H   26186.84786178  .00024911  00000+0  81275-3 0  9996
2 65330  53.1610  17.4674 0001075  70.1080 290.0037 15.31664209 49206
STARLINK-34918          
1 65331U 25189J   26186.81018481  .00037135  00000+0  12033-2 0  9996
2 65331  53.1595  17.2278 0000800 108.8626 251.2463 15.31677211 49149
STARLINK-33890          
1 65332U 25189K   26186.94568998  .00025735  00000+0  83897-3 0  9994
2 65332  53.1595  16.6477 0001233  66.6728 293.4403 15.31670248 48020
STARLINK-34602          
1 65333U 25189L   26187.47703593  .00038549  00000+0  12474-2 0  9995
2 65333  53.1591  14.2789 0000983  59.3210 300.7888 15.31703794 49307
STARLINK-34878          
1 65334U 25189M   26186.91778037  .00026624  00000+0  86746-3 0  9994
2 65334  53.1611  17.1934 0000937 106.8864 253.2240 15.31670350 49212
STARLINK-34874          
1 65335U 25189N   26187.49569190  .00019175  00000+0  59311-3 0  9998
2 65335  53.1597  15.0984 0000642 127.7798 232.3262 15.33535646 49299
STARLINK-34835          
1 65336U 25189P   26186.96044952  .00024212  00000+0  72618-3 0  9997
2 65336  53.1601  17.4556 0000870 105.3331 254.7768 15.34366887 49216
STARLINK-34854          
1 65337U 25189Q   26186.90843111  .00028940  00000+0  94036-3 0  9996
2 65337  53.1605  17.1340 0001165  98.7619 261.3514 15.31713070 49154
STARLINK-34751          
1 65338U 25189R   26187.48170154  .00021011  00000+0  68714-3 0  9997
2 65338  53.1589  14.3097 0000966 107.8672 252.2434 15.31689870 49300
STARLINK-34777          
1 65339U 25189S   26187.48637168  .00033742  00000+0  10945-2 0  9997
2 65339  53.1590  14.3403 0000802  99.9014 260.2078 15.31689180 49312
STARLINK-35020          
1 65340U 25189T   26187.51395094  .00020443  00000+0  66902-3 0  9991
2 65340  53.1609  13.7994 0000976 107.7008 252.4100 15.31685367 49262
STARLINK-35016          
1 65341U 25189U   26186.93730765  .00029821  00000+0  89204-3 0  9994
2 65341  53.1603  17.3048 0000921  51.9801 308.1284 15.34335462 49160
STARLINK-35092          
1 65342U 25189V   26186.93135656  .00032803  00000+0  10654-2 0  9999
2 65342  53.1605  16.5672 0000833  68.9204 291.1887 15.31662829 49138
STARLINK-34838          
1 65343U 25189W   26186.82385700  .00018676  00000+0  56319-3 0  9996
2 65343  53.1595  18.0171 0001243 111.4370 248.6765 15.34360785 49201
