OBJECT_NAME,OBJECT_ID,EPOCH,MEAN_MOTION,ECCENTRICITY,INCLINATION,RA_OF_ASC_NODE,ARG_OF_PERICENTER,MEAN_ANOMALY,EPHEMERIS_TYPE,CLASSIFICATION_TYPE,NORAD_CAT_ID,ELEMENT_SET_NO,REV_AT_EPOCH,BSTAR,MEAN_MOTION_DOT,MEAN_MOTION_DDOT
STARLINK-35018,2025-184R,2026-07-06T03:02:29.268096,15.05665293,.00018188,97.2828,237.7280,95.5563,264.5872,0,U,65288,999,4912,.40101045E-3,.5737E-4,0
STARLINK-34845,2025-184S,2026-07-06T02:50:31.215840,15.05646861,.00011798,97.2820,237.7363,95.9142,264.2221,0,U,65289,999,4912,.12382802E-3,.1731E-4,0
STARLINK-34984,2025-184T,2026-07-06T03:10:27.569856,15.05643187,.00016526,97.2825,237.7194,97.9850,262.1565,0,U,65290,999,4912,-.70311485E-4,-.107E-4,0
STARLINK-35002,2025-184U,2026-07-06T08:49:32.022336,15.05420068,.00010674,97.2832,237.8570,92.9257,267.2092,0,U,65291,999,4915,-.45393452E-2,-.6456E-3,0
STARLINK-35017,2025-184V,2026-07-06T13:52:26.349600,15.05670116,.00013246,97.2823,238.1849,111.2346,248.9023,0,U,65292,999,4914,.75424113E-3,.10848E-3,0
STARLINK-34951,2025-184W,2026-07-06T03:26:24.286560,15.05641740,.0002125,97.2822,237.7038,115.3895,244.7553,0,U,65293,999,4912,-.794711E-4,-.1202E-4,0
STARLINK-34613,2025-184X,2026-07-06T03:42:20.819232,15.05659604,.0001743,97.2841,237.6890,106.6006,253.5413,0,U,65294,999,4912,.17287385E-3,.2439E-4,0
STARLINK-34834,2025-184Y,2026-07-06T02:34:32.715840,15.05658523,.0001531,97.2818,237.6002,109.3455,250.7938,0,U,65295,999,4911,.12938862E-3,.1812E-4,0
STARLINK-34872,2025-184Z,2026-07-06T03:54:18.114624,15.05673950,.00019144,97.2834,237.6770,148.3435,211.7908,0,U,65296,999,4912,.37287128E-3,.5331E-4,0
STARLINK-34899,2025-189A,2026-07-05T22:41:18.821472,15.31662812,.00009042,53.1592,16.6355,100.0242,260.0862,0,U,65323,999,4922,.75909579E-3,.23237E-3,0
STARLINK-34196,2025-189B,2026-07-05T22:28:22.412928,15.31714872,.00009779,53.1605,16.5959,98.1319,261.9793,0,U,65324,999,4917,.17141836E-2,.53233E-3,0
STARLINK-34911,2025-189C,2026-07-05T22:23:39.525504,15.34342057,.00006504,53.1612,17.2884,116.9088,243.1981,0,U,65325,999,4921,.89968995E-3,.30087E-3,0
STARLINK-34902,2025-189D,2026-07-06T14:00:03.000384,15.34415023,.00013149,53.1601,14.4286,60.4243,200.6224,0,U,65326,999,576,.37918238E-3,.12462E-3,0
STARLINK-34880,2025-189E,2026-07-06T11:43:49.825632,15.30170160,.00010857,53.1600,15.0685,43.4760,316.6327,0,U,65327,999,4929,.20405434E-2,.60513E-3,0
STARLINK-34885,2025-189F,2026-07-06T11:26:27.255840,15.31689847,.00009387,53.1595,14.2830,112.8163,247.2938,0,U,65328,999,4924,.84992741E-3,.26093E-3,0
STARLINK-34908,2025-189G,2026-07-06T14:00:03.000384,15.34402382,.00013449,53.1607,14.3568,115.5379,180.3905,0,U,65329,999,581,.46291279E-3,.15297E-3,0
STARLINK-34864,2025-189H,2026-07-05T20:20:55.257792,15.31664209,.00010752,53.1610,17.4674,70.1080,290.0037,0,U,65330,999,4920,.81274699E-3,.24911E-3,0
STARLINK-34918,2025-189J,2026-07-05T19:26:39.967584,15.31677211,.00008007,53.1595,17.2278,108.8626,251.2463,0,U,65331,999,4914,.12033414E-2,.37135E-3,0
STARLINK-33890,2025-189K,2026-07-05T22:41:47.614272,15.31670248,.0001233,53.1595,16.6477,66.6728,293.4403,0,U,65332,999,4802,.83896865E-3,.25735E-3,0
STARLINK-34602,2025-189L,2026-07-06T11:26:55.904352,15.31703794,.00009831,53.1591,14.2789,59.3210,300.7888,0,U,65333,999,4930,.12474458E-2,.38549E-3,0
STARLINK-34878,2025-189M,2026-07-05T22:01:36.223968,15.31670350,.00009373,53.1611,17.1934,106.8864,253.2240,0,U,65334,999,4921,.86745769E-3,.26624E-3,0
STARLINK-34874,2025-189N,2026-07-06T11:53:47.780160,15.33535646,.00006426,53.1597,15.0984,127.7798,232.3262,0,U,65335,999,4929,.59311253E-3,.19175E-3,0
STARLINK-34835,2025-189P,2026-07-05T23:03:02.838528,15.34366887,.00008706,53.1601,17.4556,105.3331,254.7768,0,U,65336,999,4921,.72618185E-3,.24212E-3,0
STARLINK-34854,2025-189Q,2026-07-05T21:48:08.447904,15.31713070,.0001165,53.1605,17.1340,98.7619,261.3514,0,U,65337,999,4915,.94035918E-3,.2894E-3,0
STARLINK-34751,2025-189R,2026-07-06T11:33:39.013056,15.31689870,.00009667,53.1589,14.3097,107.8672,252.2434,0,U,65338,999,4930,.68714171E-3,.21011E-3,0
STARLINK-34777,2025-189S,2026-07-06T11:40:22.513152,15.31689180,.00008021,53.1590,14.3403,99.9014,260.2078,0,U,65339,999,4931,.10945252E-2,.33742E-3,0
STARLINK-35020,2025-189T,2026-07-06T12:20:05.361216,15.31685367,.00009762,53.1609,13.7994,107.7008,252.4100,0,U,65340,999,4926,.66902131E-3,.20443E-3,0
STARLINK-35016,2025-189U,2026-07-05T22:29:43.380960,15.34335462,.00009213,53.1603,17.3048,51.9801,308.1284,0,U,65341,999,4916,.89204008E-3,.29821E-3,0
STARLINK-35092,2025-189V,2026-07-05T22:21:09.206784,15.31662829,.00008334,53.1605,16.5672,68.9204,291.1887,0,U,65342,999,4913,.10654174E-2,.32803E-3,0
STARLINK-34838,2025-189W,2026-07-05T19:46:21.244800,15.34360785,.00012439,53.1595,18.0171,111.4370,248.6765,0,U,65343,999,4920,.56318862E-3,.18676E-3,0
